OBJECT_NAME,OBJECT_ID,EPOCH,MEAN_MOTION,ECCENTRICITY,INCLINATION,RA_OF_ASC_NODE,ARG_OF_PERICENTER,MEAN_ANOMALY,EPHEMERIS_TYPE,CLASSIFICATION_TYPE,NORAD_CAT_ID,ELEMENT_SET_NO,REV_AT_EPOCH,BSTAR,MEAN_MOTION_DOT,MEAN_MOTION_DDOT
TJS-7,2021-077A,2026-07-02T06:39:55.489248,1.00271411,.00034799,0.3182,264.5034,116.1286,260.2119,0,U,49115,999,970,0,-.113E-5,0
CHINASAT 9B,2021-080A,2026-07-02T02:59:51.588960,1.00265631,.00025445,0.0185,41.7894,81.4345,303.2932,0,U,49125,999,1779,0,0,0
SHIJIAN-21 (SJ-21),2021-094A,2026-07-02T06:39:49.046400,1.00263913,.00497692,5.1465,61.0913,168.0258,278.9657,0,U,49330,999,551,0,-.341E-5,0
SES-17,2021-095A,2026-07-02T05:06:30.688416,1.00269958,.00011691,0.0226,41.2384,57.9813,190.5645,0,U,49332,999,1800,0,-.262E-5,0
SYRACUSE 4A,2021-095B,2026-07-01T10:49:15.504960,1.00270065,.00014645,0.0259,38.5237,56.0153,32.7926,0,U,49333,999,1809,0,0,0
QZS-1R (MICHIBIKI-1R),2021-096A,2026-07-01T14:37:01.870752,1.00251244,.0756025,37.4893,79.3703,272.0403,280.4502,0,U,49336,999,1715,0,-.278E-5,0
ZHONGXING-1D,2021-114A,2026-07-01T07:18:38.621088,1.00270455,.00005715,0.0467,124.1238,39.3045,355.7759,0,U,49505,999,1696,0,-.326E-5,0
STPSAT-6,2021-118A,2026-07-02T04:53:43.494432,1.00270743,.00008976,0.3575,85.2645,267.6797,249.0195,0,U,49817,999,1672,0,-.35E-6,0
EXPRESS AMU-7,2021-123A,2026-07-01T06:09:47.287584,1.00272751,.0000443,0.0274,282.7758,125.5414,108.4386,0,U,50001,999,1668,0,-.232E-5,0
EXPRESS AMU-3,2021-123B,2026-07-01T22:28:34.004352,1.00272021,.00002653,0.0219,328.0435,19.3734,12.5824,0,U,50002,999,718,0,0,0
TIANLIAN 2-02,2021-124A,2026-07-02T06:14:26.929824,1.00272751,.00008122,0.8392,85.9084,178.3262,280.6641,0,U,50005,999,1677,0,-.4E-7,0
TURKSAT 5B,2021-126A,2026-07-02T02:12:21.919968,1.00271466,.00026089,0.0692,339.9822,20.7904,354.4476,0,U,50212,999,1644,0,.157E-5,0
INMARSAT 6-F1,2021-128A,2026-07-02T04:06:52.854048,1.00269872,.00002327,0.0167,332.5002,129.0829,324.1048,0,U,50319,999,1640,0,-.161E-5,0
SHIYAN-12 01 (SY-12 01),2021-129A,2026-07-01T18:40:09.968160,1.00045778,.0002967,3.7100,79.7204,294.0464,234.1643,0,U,50321,999,1664,0,.147E-5,0
SHIYAN-12 02 (SY-12 02),2021-129B,2026-07-01T17:55:40.693728,1.00484923,.000312,3.7093,79.7238,58.9175,150.3000,0,U,50322,999,1664,0,-.323E-5,0
TJS-9,2021-135A,2026-07-02T06:04:50.352384,1.00269729,.00037462,0.0146,63.9187,359.5429,85.2644,0,U,50574,999,1658,0,-.288E-5,0
USA 324,2022-006A,2026-06-06T02:06:38.886912,1.00289779,.000284,0.7690,83.2777,165.6787,110.1567,0,U,51280,999,1602,0,-.58E-6,0
GOES 18,2022-021A,2026-07-02T06:25:33.487680,1.00271362,.00005489,0.0213,199.7886,300.2471,99.6575,0,U,51850,999,674,0,.107E-5,0
ZHONGXING-6D,2022-038A,2026-06-30T21:03:57.080736,1.00272406,.00004235,0.0200,80.6644,112.0247,167.3049,0,U,52255,999,1556,0,-.343E-5,0
NILESAT 301,2022-061A,2026-07-02T05:23:36.547584,1.00273050,.00046313,0.0454,8.1907,55.6005,290.3983,0,U,52817,999,1488,0,-.47E-6,0
CMS-02 (GSAT-24),2022-067A,2026-07-02T02:23:58.308288,1.00270692,.00013695,0.0305,249.9126,132.9514,16.2757,0,U,52903,999,1475,0,-.154E-5,0
MEASAT 3D,2022-067B,2026-07-02T02:59:51.588960,1.00271198,.00006189,0.0346,325.8087,103.7523,347.0916,0,U,52904,999,1479,0,-.231E-5,0
SES-22,2022-071A,2026-07-02T06:28:56.989920,1.00272403,.00012467,0.0168,5.7572,90.4279,142.3536,0,U,52933,999,767,0,.115E-5,0
WFOV (USA 332),2022-073A,2026-07-01T23:09:03.036672,1.00275502,.00012635,3.7466,78.3480,238.7913,69.4197,0,U,52940,999,1451,0,-.354E-5,0
TIANLIAN 2-03,2022-078A,2026-07-02T05:28:36.069600,1.00272911,.00010306,0.7088,77.2982,344.4195,311.2610,0,U,53100,999,1469,0,.82E-6,0
SBIRS GEO-6 (USA 336),2022-092A,2026-07-01T21:31:58.886112,1.00271547,.00021611,3.2336,317.7153,140.0964,284.1382,0,U,53355,999,1438,0,-.279E-5,0
EUTELSAT KONNECT VHTS,2022-110A,2026-07-02T05:26:21.284736,1.00281301,.00033331,0.0583,99.2435,351.4411,273.9059,0,U,53765,999,698,0,.3E-6,0
ZHONGXING-1E,2022-112A,2026-07-02T04:06:15.414336,1.00271257,.00001823,0.0385,145.0513,91.5636,186.5806,0,U,53813,999,1399,0,-.139E-5,0
SES-20,2022-123A,2026-07-01T23:48:18.966816,1.00270236,.00021571,0.0180,58.8886,36.5789,78.5356,0,U,53960,999,1368,0,-.9E-6,0
SES-21,2022-123B,2026-07-01T23:40:19.732800,1.00268276,.00008807,0.0399,26.2089,72.1007,45.8753,0,U,53961,999,736,0,0,0
GALAXY 33 (G-33),2022-128A,2026-07-02T04:28:38.912736,1.00273224,.00020215,0.0111,39.7342,60.0293,114.6385,0,U,54026,999,1389,0,.89E-6,0
GALAXY 34 (G-34),2022-128B,2026-07-01T16:50:19.472928,1.00275358,.00019581,0.0274,26.9306,83.3094,293.1069,0,U,54027,999,1405,0,0,0
