TJS-7                   
1 49115U 21077A   26183.27772557 -.00000113  00000+0  00000+0 0  9993
2 49115   0.3182 264.5034 0003479 116.1286 260.2119  1.00271411  9702
CHINASAT 9B             
1 49125U 21080A   26183.12490265  .00000000  00000+0  00000+0 0  9999
2 49125   0.0185  41.7894 0002544  81.4345 303.2932  1.00265631 17790
SHIJIAN-21 (SJ-21)      
1 49330U 21094A   26183.27765100 -.00000341  00000+0  00000+0 0  9990
2 49330   5.1465  61.0913 0049769 168.0258 278.9657  1.00263913  5517
SES-17                  
1 49332U 21095A   26183.21285519 -.00000262  00000+0  00000+0 0  9990
2 49332   0.0226  41.2384 0001169  57.9813 190.5645  1.00269958 18004
SYRACUSE 4A             
1 49333U 21095B   26182.45087390  .00000000  00000+0  00000+0 0  9992
2 49333   0.0259  38.5237 0001464  56.0153  32.7926  1.00270065 18091
QZS-1R (MICHIBIKI-1R)   
1 49336U 21096A   26182.60904943 -.00000278  00000+0  00000+0 0  9993
2 49336  37.4893  79.3703 0756025 272.0403 280.4502  1.00251244 17157
ZHONGXING-1D            
1 49505U 21114A   26182.30461367 -.00000326  00000+0  00000+0 0  9991
2 49505   0.0467 124.1238 0000571  39.3045 355.7759  1.00270455 16967
STPSAT-6                
1 49817U 21118A   26183.20397563 -.00000035  00000+0  00000+0 0  9994
2 49817   0.3575  85.2645 0000897 267.6797 249.0195  1.00270743 16729
EXPRESS AMU-7           
1 50001U 21123A   26182.25679731 -.00000232  00000+0  00000+0 0  9990
2 50001   0.0274 282.7758 0000443 125.5414 108.4386  1.00272751 16689
EXPRESS AMU-3           
1 50002U 21123B   26182.93650468  .00000000  00000+0  00000+0 0  9994
2 50002   0.0219 328.0435 0000265  19.3734  12.5824  1.00272021  7189
TIANLIAN 2-02           
1 50005U 21124A   26183.26003391 -.00000004  00000+0  00000+0 0  9997
2 50005   0.8392  85.9084 0000812 178.3262 280.6641  1.00272751 16771
TURKSAT 5B              
1 50212U 21126A   26183.09192037  .00000157  00000+0  00000+0 0  9994
2 50212   0.0692 339.9822 0002608  20.7904 354.4476  1.00271466 16448
INMARSAT 6-F1           
1 50319U 21128A   26183.17144507 -.00000161  00000+0  00000+0 0  9998
2 50319   0.0167 332.5002 0000232 129.0829 324.1048  1.00269872 16405
SHIYAN-12 01 (SY-12 01) 
1 50321U 21129A   26182.77789315  .00000147  00000+0  00000+0 0  9992
2 50321   3.7100  79.7204 0002967 294.0464 234.1643  1.00045778 16648
SHIYAN-12 02 (SY-12 02) 
1 50322U 21129B   26182.74699877 -.00000323  00000+0  00000+0 0  9990
2 50322   3.7093  79.7238 0003120  58.9175 150.3000  1.00484923 16640
TJS-9                   
1 50574U 21135A   26183.25336056 -.00000288  00000+0  00000+0 0  9990
2 50574   0.0146  63.9187 0003746 359.5429  85.2644  1.00269729 16580
USA 324                 
1 51280U 22006A   26157.08795008 -.00000058  00000+0  00000+0 0  9996
2 51280   0.7690  83.2777 0002840 165.6787 110.1567  1.00289779 16021
GOES 18                 
1 51850U 22021A   26183.26774870  .00000107  00000+0  00000+0 0  9993
2 51850   0.0213 199.7886 0000548 300.2471  99.6575  1.00271362  6749
ZHONGXING-6D            
1 52255U 22038A   26181.87774399 -.00000343  00000+0  00000+0 0  9995
2 52255   0.0200  80.6644 0000423 112.0247 167.3049  1.00272406 15566
NILESAT 301             
1 52817U 22061A   26183.22472856 -.00000047  00000+0  00000+0 0  9990
2 52817   0.0454   8.1907 0004631  55.6005 290.3983  1.00273050 14881
CMS-02 (GSAT-24)        
1 52903U 22067A   26183.09998042 -.00000154  00000+0  00000+0 0  9996
2 52903   0.0305 249.9126 0001369 132.9514  16.2757  1.00270692 14758
MEASAT 3D               
1 52904U 22067B   26183.12490265 -.00000231  00000+0  00000+0 0  9991
2 52904   0.0346 325.8087 0000618 103.7523 347.0916  1.00271198 14794
SES-22                  
1 52933U 22071A   26183.27010405  .00000115  00000+0  00000+0 0  9998
2 52933   0.0168   5.7572 0001246  90.4279 142.3536  1.00272403  7672
WFOV (USA 332)          
1 52940U 22073A   26182.96461848 -.00000354  00000+0  00000+0 0  9990
2 52940   3.7466  78.3480 0001263 238.7913  69.4197  1.00275502 14512
TIANLIAN 2-03           
1 53100U 22078A   26183.22819525  .00000082  00000+0  00000+0 0  9990
2 53100   0.7088  77.2982 0001030 344.4195 311.2610  1.00272911 14690
SBIRS GEO-6 (USA 336)   
1 53355U 22092A   26182.89720933 -.00000279  00000+0  00000+0 0  9993
2 53355   3.2336 317.7153 0002161 140.0964 284.1382  1.00271547 14382
EUTELSAT KONNECT VHTS   
1 53765U 22110A   26183.22663524  .00000030  00000+0  00000+0 0  9993
2 53765   0.0583  99.2435 0003333 351.4411 273.9059  1.00281301  6981
ZHONGXING-1E            
1 53813U 22112A   26183.17101174 -.00000139  00000+0  00000+0 0  9992
2 53813   0.0385 145.0513 0000182  91.5636 186.5806  1.00271257 13999
SES-20                  
1 53960U 22123A   26182.99188619 -.00000090  00000+0  00000+0 0  9991
2 53960   0.0180  58.8886 0002157  36.5789  78.5356  1.00270236 13683
SES-21                  
1 53961U 22123B   26182.98633950  .00000000  00000+0  00000+0 0  9994
2 53961   0.0399  26.2089 0000880  72.1007  45.8753  1.00268276  7367
GALAXY 33 (G-33)        
1 54026U 22128A   26183.18656149  .00000089  00000+0  00000+0 0  9997
2 54026   0.0111  39.7342 0002021  60.0293 114.6385  1.00273224 13895
GALAXY 34 (G-34)        
1 54027U 22128B   26182.70161427  .00000000  00000+0  00000+0 0  9998
2 54027   0.0274  26.9306 0001958  83.3094 293.1069  1.00275358 14050
